{
  "type": "FeatureCollection",
  "features": [
    {
      "type": "Feature",
      "properties": {
        "norad_id": 64902,
        "name": "CO3D 2",
        "group": "resource",
        "lat": 51.84308654955387,
        "lon": -107.46418098965006,
        "alt_km": 499.99074398343964,
        "timestamp": "2025-12-12T16:50:32.805633+00:00",
        "meta_object_name": "CO3D 2",
        "meta_object_id": "2025-156D",
        "meta_epoch": "2025-12-11T19:44:49.576992",
        "meta_mean_motion": 15.20205199,
        "meta_eccentricity": 9.831e-05,
        "meta_inclination": 97.4346,
        "meta_ra_of_asc_node": 62.1026,
        "meta_arg_of_pericenter": 82.2785,
        "meta_mean_anomaly": 277.8562,
        "meta_ephemeris_type": 0,
        "meta_classification_type": "U",
        "meta_norad_cat_id": 64902,
        "meta_element_set_no": 999,
        "meta_rev_at_epoch": 2106,
        "meta_bstar": 0.00010250119,
        "meta_mean_motion_dot": 2.152e-05,
        "meta_mean_motion_ddot": 0,
        "tle_line1": "1 64902U 25156D   25345.82279603  .00002152  00000+0  10250-3 0  9996",
        "tle_line2": "2 64902  97.4346  62.1026 0000983  82.2785 277.8562 15.20205199 21065"
      },
      "geometry": {
        "type": "Point",
        "coordinates": [
          -107.46418098965006,
          51.84308654955387
        ]
      }
    },
    {
      "type": "Feature",
      "properties": {
        "norad_id": 64903,
        "name": "CO3D 1",
        "group": "resource",
        "lat": 49.714438890291696,
        "lon": -107.97935207310694,
        "alt_km": 491.7566725558672,
        "timestamp": "2025-12-12T16:50:32.805643+00:00",
        "meta_object_name": "CO3D 1",
        "meta_object_id": "2025-156E",
        "meta_epoch": "2025-12-11T15:00:21.413376",
        "meta_mean_motion": 15.2097193,
        "meta_eccentricity": 0.00688067,
        "meta_inclination": 97.3738,
        "meta_ra_of_asc_node": 62.1786,
        "meta_arg_of_pericenter": 215.787,
        "meta_mean_anomaly": 143.8746,
        "meta_ephemeris_type": 0,
        "meta_classification_type": "U",
        "meta_norad_cat_id": 64903,
        "meta_element_set_no": 999,
        "meta_rev_at_epoch": 2103,
        "meta_bstar": 0.00049386558,
        "meta_mean_motion_dot": 0.00011603,
        "meta_mean_motion_ddot": 0,
        "tle_line1": "1 64903U 25156E   25345.62524784  .00011603  00000+0  49387-3 0  9992",
        "tle_line2": "2 64903  97.3738  62.1786 0068806 215.7870 143.8746 15.20971930 21035"
      },
      "geometry": {
        "type": "Point",
        "coordinates": [
          -107.97935207310694,
          49.714438890291696
        ]
      }
    },
    {
      "type": "Feature",
      "properties": {
        "norad_id": 66514,
        "name": "SENTINEL-6B",
        "group": "resource",
        "lat": -64.27742432170486,
        "lon": 95.14335938806038,
        "alt_km": 1335.89634442416,
        "timestamp": "2025-12-12T16:50:32.805654+00:00",
        "meta_object_name": "SENTINEL-6B",
        "meta_object_id": "2025-264A",
        "meta_epoch": "2025-12-12T06:01:21.430272",
        "meta_mean_motion": 12.81479583,
        "meta_eccentricity": 0.00078489,
        "meta_inclination": 66.0385,
        "meta_ra_of_asc_node": 163.4531,
        "meta_arg_of_pericenter": 270.1768,
        "meta_mean_anomaly": 89.8348,
        "meta_ephemeris_type": 0,
        "meta_classification_type": "U",
        "meta_norad_cat_id": 66514,
        "meta_element_set_no": 999,
        "meta_rev_at_epoch": 322,
        "meta_bstar": 0.00019742237,
        "meta_mean_motion_dot": -1.5e-07,
        "meta_mean_motion_ddot": 0,
        "tle_line1": "1 66514U 25264A   25346.25094248 -.00000015  00000+0  19742-3 0  9997",
        "tle_line2": "2 66514  66.0385 163.4531 0007848 270.1768  89.8348 12.81479583  3228"
      },
      "geometry": {
        "type": "Point",
        "coordinates": [
          95.14335938806038,
          -64.27742432170486
        ]
      }
    }
  ]
}